H1 CPF  1  HTS 2022  4 26 12  6161 larets           NONE
H2  0304206 5557    27944 2022 04 26  0  0  0 2022 05 01  0  0  0   180 1 1  0 0 0
H5  0.0560 
H9 
10 0 59698  33480.00000  0    1857167.569    2754502.501   -6249443.408
10 0 59698  33660.00000  0    1551498.821    1522062.645   -6736018.157
10 0 59698  33840.00000  0    1157060.285     244051.390   -6978479.091
10 0 59698  34020.00000  0     687498.294   -1031393.761   -6968147.901
10 0 59698  34200.00000  0     160388.174   -2256656.200   -6705351.763
10 0 59698  34380.00000  0    -403401.257   -3386361.082   -6199417.841
10 0 59698  34560.00000  0    -980502.224   -4379019.455   -5468391.138
10 0 59698  34740.00000  0   -1545978.471   -5198545.977   -4538465.574
10 0 59698  34920.00000  0   -2074366.293   -5815603.220   -3443132.393
10 0 59698  35100.00000  0   -2540789.541   -6208715.702   -2222048.664
10 0 59698  35280.00000  0   -2922100.131   -6365099.135    -919650.575
10 0 59698  35460.00000  0   -3197990.537   -6281156.994     416453.674
10 0 59698  35640.00000  0   -3352016.985   -5962600.013    1737253.557
10 0 59698  35820.00000  0   -3372474.622   -5424171.916    2994188.407
10 0 59698  36000.00000  0   -3253074.148   -4688989.619    4140995.031
10 0 59698  36180.00000  0   -2993382.214   -3787534.043    5135463.359
10 0 59698  36360.00000  0   -2599004.422   -2756344.082    5941022.752
10 0 59698  36540.00000  0   -2081500.608   -1636485.311    6528093.651
10 0 59698  36720.00000  0   -1458038.990    -471871.451    6875163.213
10 0 59698  36900.00000  0    -750805.446     692494.526    6969548.995
10 0 59698  37080.00000  0      13801.376    1812278.813    6807836.865
10 0 59698  37260.00000  0     806167.867    2845520.503    6395996.697
10 0 59698  37440.00000  0    1594622.753    3754220.381    5749165.101
10 0 59698  37620.00000  0    2346710.164    4505761.783    4891105.293
10 0 59698  37800.00000  0    3030535.938    5074115.934    3853351.524
10 0 59698  37980.00000  0    3616130.874    5440778.470    2674058.465
10 0 59698  38160.00000  0    4076774.991    5595405.017    1396589.297
10 0 59698  38340.00000  0    4390210.653    5536099.562      67882.604
10 0 59698  38520.00000  0    4539679.886    5269344.469   -1263322.925
10 0 59698  38700.00000  0    4514736.084    4809572.471   -2548326.676
10 0 59698  38880.00000  0    4311789.533    4178414.993   -3740283.340
10 0 59698  39060.00000  0    3934359.992    3403669.515   -4795921.799
10 0 59698  39240.00000  0    3393034.046    2518046.549   -5677090.981
10 0 59698  39420.00000  0    2705139.139    1557765.862   -6352083.467
10 0 59698  39600.00000  0    1894155.184     561069.305   -6796698.804
10 0 59698  39780.00000  0     988897.940    -433283.496   -6995028.352
10 0 59698  39960.00000  0      22504.862   -1387485.942   -6939964.546
10 0 59698  40140.00000  0    -968749.171   -2266078.398   -6633424.832
10 0 59698  40320.00000  0   -1946770.023   -3037227.058   -6086299.089
10 0 59698  40500.00000  0   -2873065.720   -3673859.532   -5318114.527
10 0 59698  40680.00000  0   -3710232.529   -4154623.404   -4356420.361
10 0 59698  40860.00000  0   -4423462.951   -4464636.234   -3235885.508
10 0 59698  41040.00000  0   -4982011.537   -4595988.984   -1997119.535
10 0 59698  41220.00000  0   -5360553.577   -4547974.490    -685241.900
10 0 59698  41400.00000  0   -5540364.885   -4327020.130     651757.441
10 0 59698  41580.00000  0   -5510255.264   -3946319.372    1964806.496
10 0 59698  41760.00000  0   -5267193.365   -3425168.950    3205612.073
10 0 59698  41940.00000  0   -4816583.999   -2788043.927    4328498.353
10 0 59698  42120.00000  0   -4172182.973   -2063461.916    5292140.018
10 0 59698  42300.00000  0   -3355655.061   -1282697.681    6061108.333
10 0 59698  42480.00000  0   -2395807.229    -478418.926    6607177.424
10 0 59698  42660.00000  0   -1327524.659     316699.844    6910348.057
10 0 59698  42840.00000  0    -190461.872    1071315.945    6959550.934
10 0 59698  43020.00000  0     972452.629    1756660.265    6753029.924
10 0 59698  43200.00000  0    2116653.450    2347643.917    6298397.044
10 0 59698  43380.00000  0    3197660.822    2823786.716    5612357.682
10 0 59698  43560.00000  0    4172831.813    3169939.852    4720115.894
10 0 59698  43740.00000  0    5003073.261    3376777.822    3654464.510
10 0 59698  43920.00000  0    5654451.231    3441039.986    2454588.088
10 0 59698  44100.00000  0    6099620.299    3365505.713    1164602.846
10 0 59698  44280.00000  0    6318995.430    3158706.366    -168102.736
10 0 59698  44460.00000  0    6301608.251    2834385.476   -1494662.195
10 0 59698  44640.00000  0    6045599.839    2410735.812   -2766571.542
10 0 59698  44820.00000  0    5558334.839    1909464.364   -3937494.044
10 0 59698  45000.00000  0    4856137.710    1354729.713   -4964954.882
10 0 59698  45180.00000  0    3963669.802     772010.411   -5811852.310
10 0 59698  45360.00000  0    2912995.854     186967.373   -6447733.100
10 0 59698  45540.00000  0    1742389.759    -375650.461   -6849808.358
10 0 59698  45720.00000  0     494933.676    -893016.036   -7003691.800
10 0 59698  45900.00000  0    -783042.724   -1345116.652   -6903858.813
10 0 59698  46080.00000  0   -2043635.678   -1715500.867   -6553822.205
10 0 59698  46260.00000  0   -3239109.662   -1991863.389   -5966028.605
10 0 59698  46440.00000  0   -4323661.204   -2166451.312   -5161473.418
10 0 59698  46620.00000  0   -5255163.034   -2236282.533   -4169036.131
10 0 59698  46800.00000  0   -5996826.951   -2203163.494   -3024528.333
10 0 59698  46980.00000  0   -6518715.504   -2073500.786   -1769468.348
10 0 59698  47160.00000  0   -6799027.567   -1857907.890    -449609.073
10 0 59698  47340.00000  0   -6825085.648   -1570620.141     886733.995
10 0 59698  47520.00000  0   -6593961.647   -1228741.515    2190490.254
10 0 59698  47700.00000  0   -6112694.781    -851361.425    3413695.712
10 0 59698  47880.00000  0   -5398085.450    -458587.784    4511320.529
10 0 59698  48060.00000  0   -4476070.801     -70547.865    5442975.513
10 0 59698  48240.00000  0   -3380725.563     293587.986    6174418.135
10 0 59698  48420.00000  0   -2152941.072     616512.469    6678811.173
10 0 59698  48600.00000  0    -838840.876     883572.362    6937689.812
10 0 59698  48780.00000  0     511994.404    1083414.156    6941611.351
10 0 59698  48960.00000  0    1848421.433    1208459.414    6690478.449
10 0 59698  49140.00000  0    3119686.561    1255193.919    6193536.184
10 0 59698  49320.00000  0    4277373.767    1224259.704    5469042.316
10 0 59698  49500.00000  0    5277279.419    1120347.761    4543613.355
10 0 59698  49680.00000  0    6081145.653     951897.017    3451266.329
10 0 59698  49860.00000  0    6658182.444     730612.564    2232167.565
10 0 59698  50040.00000  0    6986296.261     470822.774     931134.642
10 0 59698  50220.00000  0    7052970.923     188708.766    -404050.741
10 0 59698  50400.00000  0    6855749.984     -98554.890   -1724450.146
10 0 59698  50580.00000  0    6402294.524    -373701.960   -2981811.957
10 0 59698  50760.00000  0    5710021.763    -620271.090   -4130363.064
10 0 59698  50940.00000  0    4805354.087    -823449.240   -5128473.576
10 0 59698  51120.00000  0    3722628.305    -970818.507   -5940127.560
10 0 59698  51300.00000  0    2502731.558   -1052977.801   -6536157.073
10 0 59698  51480.00000  0    1191527.012   -1064013.454   -6895210.003
10 0 59698  51660.00000  0    -161862.019   -1001802.624   -7004438.945
10 0 59698  51840.00000  0   -1506853.683    -868143.402   -6859909.975
10 0 59698  52020.00000  0   -2793243.770    -668706.767   -6466730.418
10 0 59698  52200.00000  0   -3973026.915    -412811.516   -5838892.748
10 0 59698  52380.00000  0   -5002155.706    -113028.834   -4998841.792
10 0 59698  52560.00000  0   -5842192.809     215373.593   -3976757.266
10 0 59698  52740.00000  0   -6461795.038     555131.338   -2809555.262
10 0 59698  52920.00000  0   -6837964.546     887804.077   -1539617.870
10 0 59698  53100.00000  0   -6956998.509    1194682.020    -213281.847
10 0 59698  53280.00000  0   -6815075.584    1457732.548    1120867.896
10 0 59698  53460.00000  0   -6418432.083    1660538.392    2413820.694
10 0 59698  53640.00000  0   -5783118.571    1789178.057    3618000.728
10 0 59698  53820.00000  0   -4934335.879    1832996.230    4689080.036
10 0 59698  54000.00000  0   -3905388.169    1785222.388    5587652.109
10 0 59698  54180.00000  0   -2736318.403    1643408.255    6280698.506
10 0 59698  54360.00000  0   -1472290.662    1409664.427    6742801.470
10 0 59698  54540.00000  0    -161790.561    1090683.445    6957054.632
10 0 59698  54720.00000  0    1145267.232     697550.376    6915651.625
10 0 59698  54900.00000  0    2399457.275     245349.820    6620152.997
10 0 59698  55080.00000  0    3553727.005    -247417.596    6081427.440
10 0 59698  55260.00000  0    4565185.730    -759591.413    5319265.961
10 0 59698  55440.00000  0    5396733.385   -1268253.349    4361672.628
10 0 59698  55620.00000  0    6018467.738   -1749739.560    3243849.544
10 0 59698  55800.00000  0    6408810.616   -2180720.425    2006899.985
10 0 59698  55980.00000  0    6555296.083   -2539296.582     696293.011
10 0 59698  56160.00000  0    6454980.812   -2806055.731    -639850.426
10 0 59698  56340.00000  0    6114453.294   -2965034.296   -1952578.112
10 0 59698  56520.00000  0    5549440.450   -3004532.484   -3193948.001
10 0 59698  56700.00000  0    4784042.720   -2917741.385   -4318802.114
10 0 59698  56880.00000  0    3849649.624   -2703157.602   -5286400.844
10 0 59698  57060.00000  0    2783594.652   -2364769.185   -6061856.264
10 0 59698  57240.00000  0    1627628.534   -1912011.157   -6617316.913
10 0 59698  57420.00000  0     426280.321   -1359499.991   -6932891.161
10 0 59698  57600.00000  0    -774837.369    -726557.352   -6997287.468
10 0 59698  57780.00000  0   -1930716.035     -36545.848   -6808170.967
99
